ONEWEB-0597             
1 54663U 22166X   24139.44594334  .00000024  00000+0  27828-4 0  9992
2 54663  87.9322  35.2035 0001544  78.7567 281.3740 13.21827137 71175
ONEWEB-0600             
1 54664U 22166Y   24139.42859086  .00000005  00000+0 -18511-4 0  9998
2 54664  87.9316  35.2490 0001669  81.4902 278.6421 13.21827231 71143
ONEWEB-0601             
1 54665U 22166Z   24139.42070481  .00000095  00000+0  19907-3 0  9990
2 54665  87.9322  35.2124 0001503  66.5916 293.5375 13.21828074 71332
ONEWEB-0602             
1 54666U 22166AA  24139.46171412  .00000067  00000+0  12994-3 0  9999
2 54666  87.9320  35.2088 0001492  76.0535 284.0765 13.21827498 71180
ONEWEB-0603             
1 54667U 22166AB  24139.46643988 -.00000002  00000+0 -35751-4 0  9990
2 54667  87.9321  35.2086 0001470  73.7790 286.3506 13.21827877 71115
ONEWEB-0604             
1 54668U 22166AC  24139.45381684  .00000058  00000+0  10810-3 0  9999
2 54668  87.9314  35.1930 0001757  89.8241 270.3094 13.21828493 71077
ONEWEB-0605             
1 54669U 22166AD  24139.44753045  .00000042  00000+0  70086-4 0  9998
2 54669  87.9314  35.2272 0001551  60.3500 299.7789 13.21828226 71140
ONEWEB-0606             
1 54670U 22166AE  24139.46959988  .00000050  00000+0  88707-4 0  9994
2 54670  87.9319  35.2115 0002117  82.2442 277.8933 13.21827658 71203
